FALCONSAT-10            
1 58291U 23174AM  26068.70247784  .00006748  00000+0  25969-3 0  9991
2 58291  97.3865 145.7938 0008932 169.5942 190.5483 15.26670596129582
STARLINK-35309          
1 66323U 25253E   26068.44853025  .00028955  00000+0  10574-2 0  9997
2 66323  43.0018 214.2055 0001941 253.3362 106.7276 15.27587607 20207
